start=new Date('2021-09-01T00:00:00.000Z').valueOf();
sats=[{"MEAN_ANOMALY":"303.9829","MEAN_MOTION_DOT":"0.00000682","FILE":"3106454","COUNTRY_CODE":"US","EPHEMERIS_TYPE":"0","RA_OF_ASC_NODE":"238.1109","GP_ID":"183840243","APOAPSIS":"547.773","ECCENTRICITY":"0.00007920","MEAN_ELEMENT_THEORY":"SGP4","ARG_OF_PERICENTER":"56.1235","REF_FRAME":"TEME","INCLINATION":"53.0527","OBJECT_NAME":"STARLINK-1205","OBJECT_TYPE":"PAYLOAD","DECAY_DATE":null,"ELEMENT_SET_NO":"999","LAUNCH_DATE":"2020-02-17","TLE_LINE1":"1 45184U 20012G   21243.72114496  .00000682  00000-0  64694-4 0  9992","EPOCH":"2021-08-31T17:18:26.924544","PERIAPSIS":"546.677","TLE_LINE2":"2 45184  53.0527 238.1109 0000792  56.1235 303.9829 15.06396270 85310","CLASSIFICATION_TYPE":"U","CENTER_NAME":"EARTH","OBJECT_ID":"2020-012G","SITE":"AFETR","REV_AT_EPOCH":"8531","NORAD_CAT_ID":"45184","RCS_SIZE":"LARGE","PERIOD":"95.592","TIME_SYSTEM":"UTC","MEAN_MOTION_DDOT":"0.0000000000000","SEMIMAJOR_AXIS":"6925.360","MEAN_MOTION":"15.06396270","BSTAR":"0.00006469400000"},{"PERIAPSIS":"546.710","EPOCH":"2021-08-31T10:58:56.487072","TLE_LINE1":"1 45185U 20012H   21243.45759823 -.00001086  00000-0 -54058-4 0  9996","LAUNCH_DATE":"2020-02-17","ELEMENT_SET_NO":"999","TLE_LINE2":"2 45185  53.0536 259.2911 0000746  28.4704 331.6326 15.06395734 85312","OBJECT_NAME":"STARLINK-1216","DECAY_DATE":null,"OBJECT_TYPE":"PAYLOAD","ECCENTRICITY":"0.00007460","APOAPSIS":"547.743","GP_ID":"183819207","INCLINATION":"53.0536","REF_FRAME":"TEME","MEAN_ELEMENT_THEORY":"SGP4","ARG_OF_PERICENTER":"28.4704","FILE":"3106392","COUNTRY_CODE":"US","MEAN_MOTION_DOT":"-0.00001086","MEAN_ANOMALY":"331.6326","RA_OF_ASC_NODE":"259.2911","EPHEMERIS_TYPE":"0","MEAN_MOTION":"15.06395734","SEMIMAJOR_AXIS":"6925.362","MEAN_MOTION_DDOT":"0.0000000000000","TIME_SYSTEM":"UTC","BSTAR":"-0.00005405800000","SITE":"AFETR","REV_AT_EPOCH":"8531","RCS_SIZE":"LARGE","PERIOD":"95.592","NORAD_CAT_ID":"45185","OBJECT_ID":"2020-012H","CENTER_NAME":"EARTH","CLASSIFICATION_TYPE":"U"},{"OBJECT_NAME":"STARLINK-1224","DECAY_DATE":null,"OBJECT_TYPE":"PAYLOAD","TLE_LINE1":"1 45186U 20012J   21243.73771829  .00001067  00000-0  90516-4 0  9994","ELEMENT_SET_NO":"999","LAUNCH_DATE":"2020-02-17","PERIAPSIS":"546.778","EPOCH":"2021-08-31T17:42:18.860256","TLE_LINE2":"2 45186  53.0537 258.0326 0000666  39.9045 320.1993 15.06391727 85947","MEAN_ANOMALY":"320.1993","MEAN_MOTION_DOT":"0.00001067","COUNTRY_CODE":"US","FILE":"3106454","EPHEMERIS_TYPE":"0","RA_OF_ASC_NODE":"258.0326","GP_ID":"183839741","ECCENTRICITY":"0.00006660","APOAPSIS":"547.700","ARG_OF_PERICENTER":"39.9045","MEAN_ELEMENT_THEORY":"SGP4","INCLINATION":"53.0537","REF_FRAME":"TEME","REV_AT_EPOCH":"8594","SITE":"AFETR","NORAD_CAT_ID":"45186","PERIOD":"95.593","RCS_SIZE":"LARGE","MEAN_MOTION_DDOT":"0.0000000000000","TIME_SYSTEM":"UTC","MEAN_MOTION":"15.06391727","SEMIMAJOR_AXIS":"6925.374","BSTAR":"0.00009051600000","CLASSIFICATION_TYPE":"U","OBJECT_ID":"2020-012J","CENTER_NAME":"EARTH"},{"OBJECT_ID":"2020-012K","CENTER_NAME":"EARTH","CLASSIFICATION_TYPE":"U","BSTAR":"0.00008749800000","MEAN_MOTION":"15.06405350","SEMIMAJOR_AXIS":"6925.332","MEAN_MOTION_DDOT":"0.0000000000000","TIME_SYSTEM":"UTC","PERIOD":"95.592","RCS_SIZE":"LARGE","NORAD_CAT_ID":"45187","REV_AT_EPOCH":"8599","SITE":"AFETR","INCLINATION":"53.0528","REF_FRAME":"TEME","ARG_OF_PERICENTER":"59.6838","MEAN_ELEMENT_THEORY":"SGP4","ECCENTRICITY":"0.00005010","APOAPSIS":"547.544","GP_ID":"183839991","RA_OF_ASC_NODE":"258.0228","EPHEMERIS_TYPE":"0","FILE":"3106454","COUNTRY_CODE":"US","MEAN_MOTION_DOT":"0.00001023","MEAN_ANOMALY":"300.4201","TLE_LINE2":"2 45187  53.0528 258.0228 0000501  59.6838 300.4201 15.06405350 85992","PERIAPSIS":"546.850","EPOCH":"2021-08-31T17:47:37.178592","TLE_LINE1":"1 45187U 20012K   21243.74140253  .00001023  00000-0  87498-4 0  9994","LAUNCH_DATE":"2020-02-17","ELEMENT_SET_NO":"999","DECAY_DATE":null,"OBJECT_TYPE":"PAYLOAD","OBJECT_NAME":"STARLINK-1225"},{"OBJECT_TYPE":"PAYLOAD","DECAY_DATE":null,"OBJECT_NAME":"STARLINK-1228","TLE_LINE2":"2 45188  53.0539 217.5922 0001069  46.6035 313.5043 15.06399426 86526","ELEMENT_SET_NO":"999","LAUNCH_DATE":"2020-02-17","TLE_LINE1":"1 45188U 20012L   21243.83723565  .00001542  00000-0  12238-3 0  9993","EPOCH":"2021-08-31T20:05:37.160160","PERIAPSIS":"546.475","EPHEMERIS_TYPE":"0","RA_OF_ASC_NODE":"217.5922","MEAN_ANOMALY":"313.5043","MEAN_MOTION_DOT":"0.00001542","FILE":"3106454","COUNTRY_CODE":"US","ARG_OF_PERICENTER":"46.6035","MEAN_ELEMENT_THEORY":"SGP4","REF_FRAME":"TEME","INCLINATION":"53.0539","GP_ID":"183840743","APOAPSIS":"547.956","ECCENTRICITY":"0.00010690","NORAD_CAT_ID":"45188","RCS_SIZE":"LARGE","PERIOD":"95.592","REV_AT_EPOCH":"8652","SITE":"AFETR","BSTAR":"0.00012238000000","TIME_SYSTEM":"UTC","MEAN_MOTION_DDOT":"0.0000000000000","SEMIMAJOR_AXIS":"6925.350","MEAN_MOTION":"15.06399426","CLASSIFICATION_TYPE":"U","CENTER_NAME":"EARTH","OBJECT_ID":"2020-012L"},{"APOAPSIS":"547.675","ECCENTRICITY":"0.00006440","GP_ID":"183840993","REF_FRAME":"TEME","INCLINATION":"53.0537","MEAN_ELEMENT_THEORY":"SGP4","ARG_OF_PERICENTER":"63.0484","COUNTRY_CODE":"US","FILE":"3106454","MEAN_ANOMALY":"297.0571","MEAN_MOTION_DOT":"-0.00001063","RA_OF_ASC_NODE":"258.0005","EPHEMERIS_TYPE":"0","EPOCH":"2021-08-31T17:52:57.124704","PERIAPSIS":"546.783","LAUNCH_DATE":"2020-02-17","ELEMENT_SET_NO":"999","TLE_LINE1":"1 45189U 20012M   21243.74510561 -.00001063  00000-0 -52481-4 0  9999","TLE_LINE2":"2 45189  53.0537 258.0005 0000644  63.0484 297.0571 15.06394959 83228","OBJECT_NAME":"STARLINK-1230","OBJECT_TYPE":"PAYLOAD","DECAY_DATE":null,"CENTER_NAME":"EARTH","OBJECT_ID":"2020-012M","CLASSIFICATION_TYPE":"U","SEMIMAJOR_AXIS":"6925.364","MEAN_MOTION":"15.06394959","TIME_SYSTEM":"UTC","MEAN_MOTION_DDOT":"0.0000000000000","BSTAR":"-0.00005248100000","REV_AT_EPOCH":"8322","SITE":"AFETR","PERIOD":"95.592","RCS_SIZE":"LARGE","NORAD_CAT_ID":"45189"},{"MEAN_MOTION_DOT":"0.00000784","MEAN_ANOMALY":"311.9219","COUNTRY_CODE":"US","FILE":"3106454","EPHEMERIS_TYPE":"0","RA_OF_ASC_NODE":"218.5163","GP_ID":"183839242","APOAPSIS":"548.023","ECCENTRICITY":"0.00011710","MEAN_ELEMENT_THEORY":"SGP4","ARG_OF_PERICENTER":"48.1870","REF_FRAME":"TEME","INCLINATION":"53.0539","OBJECT_NAME":"STARLINK-1234","OBJECT_TYPE":"PAYLOAD","DECAY_DATE":null,"LAUNCH_DATE":"2020-02-17","ELEMENT_SET_NO":"999","TLE_LINE1":"1 45190U 20012N   21243.63082652  .00000784  00000-0  71500-4 0  9994","EPOCH":"2021-08-31T15:08:23.411328","PERIAPSIS":"546.401","TLE_LINE2":"2 45190  53.0539 218.5163 0001171  48.1870 311.9219 15.06400450 86443","CLASSIFICATION_TYPE":"U","CENTER_NAME":"EARTH","OBJECT_ID":"2020-012N","REV_AT_EPOCH":"8644","SITE":"AFETR","NORAD_CAT_ID":"45190","RCS_SIZE":"LARGE","PERIOD":"95.592","TIME_SYSTEM":"UTC","MEAN_MOTION_DDOT":"0.0000000000000","SEMIMAJOR_AXIS":"6925.347","MEAN_MOTION":"15.06400450","BSTAR":"0.00007150000000"},{"CLASSIFICATION_TYPE":"U","OBJECT_ID":"2020-012P","CENTER_NAME":"EARTH","RCS_SIZE":"LARGE","PERIOD":"95.592","NORAD_CAT_ID":"45191","REV_AT_EPOCH":"8318","SITE":"AFETR","BSTAR":"0.00000794700000","MEAN_MOTION":"15.06400806","SEMIMAJOR_AXIS":"6925.346","MEAN_MOTION_DDOT":"0.0000000000000","TIME_SYSTEM":"UTC","RA_OF_ASC_NODE":"258.8669","EPHEMERIS_TYPE":"0","COUNTRY_CODE":"US","FILE":"3106454","MEAN_ANOMALY":"337.1225","MEAN_MOTION_DOT":"-0.00000163","INCLINATION":"53.0544","REF_FRAME":"TEME","MEAN_ELEMENT_THEORY":"SGP4","ARG_OF_PERICENTER":"22.9778","ECCENTRICITY":"0.00003220","APOAPSIS":"547.434","GP_ID":"183839492","DECAY_DATE":null,"OBJECT_TYPE":"PAYLOAD","OBJECT_NAME":"STARLINK-1236","TLE_LINE2":"2 45191  53.0544 258.8669 0000322  22.9778 337.1225 15.06400806 83182","PERIAPSIS":"546.988","EPOCH":"2021-08-31T13:16:55.895808","TLE_LINE1":"1 45191U 20012P   21243.55342472 -.00000163  00000-0  79470-5 0  9992","ELEMENT_SET_NO":"999","LAUNCH_DATE":"2020-02-17"},{"OBJECT_ID":"2020-012Q","CENTER_NAME":"EARTH","CLASSIFICATION_TYPE":"U","MEAN_MOTION_DDOT":"0.0000000000000","TIME_SYSTEM":"UTC","MEAN_MOTION":"15.06398417","SEMIMAJOR_AXIS":"6925.353","BSTAR":"-0.00004755600000","REV_AT_EPOCH":"8594","SITE":"AFETR","NORAD_CAT_ID":"45192","PERIOD":"95.592","RCS_SIZE":"LARGE","GP_ID":"183814158","ECCENTRICITY":"0.00002590","APOAPSIS":"547.398","MEAN_ELEMENT_THEORY":"SGP4","ARG_OF_PERICENTER":"2.6144","INCLINATION":"53.0546","REF_FRAME":"TEME","MEAN_MOTION_DOT":"-0.00000989","MEAN_ANOMALY":"357.4847","COUNTRY_CODE":"US","FILE":"3106313","EPHEMERIS_TYPE":"0","RA_OF_ASC_NODE":"259.8751","TLE_LINE1":"1 45192U 20012Q   21243.32857398 -.00000989  00000-0 -47556-4 0  9992","ELEMENT_SET_NO":"999","LAUNCH_DATE":"2020-02-17","PERIAPSIS":"547.039","EPOCH":"2021-08-31T07:53:08.791872","TLE_LINE2":"2 45192  53.0546 259.8751 0000259   2.6144 357.4847 15.06398417 85944","OBJECT_NAME":"STARLINK-1237","DECAY_DATE":null,"OBJECT_TYPE":"PAYLOAD"},{"SEMIMAJOR_AXIS":"6925.358","MEAN_MOTION":"15.06396814","TIME_SYSTEM":"UTC","MEAN_MOTION_DDOT":"0.0000000000000","BSTAR":"0.00006092900000","REV_AT_EPOCH":"8591","SITE":"AFETR","RCS_SIZE":"LARGE","PERIOD":"95.592","NORAD_CAT_ID":"45193","CENTER_NAME":"EARTH","OBJECT_ID":"2020-012R","CLASSIFICATION_TYPE":"U","EPOCH":"2021-08-31T12:23:51.299808","PERIAPSIS":"546.844","ELEMENT_SET_NO":"999","LAUNCH_DATE":"2020-02-17","TLE_LINE1":"1 45193U 20012R   21243.51656597  .00000626  00000-0  60929-4 0  9997","TLE_LINE2":"2 45193  53.0534 259.0266 0000548  62.7442 297.3603 15.06396814 85912","OBJECT_NAME":"STARLINK-1239","OBJECT_TYPE":"PAYLOAD","DECAY_DATE":null,"APOAPSIS":"547.603","ECCENTRICITY":"0.00005480","GP_ID":"183813419","REF_FRAME":"TEME","INCLINATION":"53.0534","MEAN_ELEMENT_THEORY":"SGP4","ARG_OF_PERICENTER":"62.7442","FILE":"3106313","COUNTRY_CODE":"US","MEAN_ANOMALY":"297.3603","MEAN_MOTION_DOT":"0.00000626","RA_OF_ASC_NODE":"259.0266","EPHEMERIS_TYPE":"0"}];
